[{"OBJECT_NAME":"ONEWEB-0506","OBJECT_ID":"2022-138M","EPOCH":"2026-02-18T05:15:30.633120","MEAN_MOTION":13.19725137,"ECCENTRICITY":0.00014576,"INCLINATION":87.9261,"RA_OF_ASC_NODE":328.6442,"ARG_OF_PERICENTER":84.4768,"MEAN_ANOMALY":275.6531,"EPHEMERIS_TYPE":0,"CLASSIFICATION_TYPE":"U","NORAD_CAT_ID":54124,"ELEMENT_SET_NO":999,"REV_AT_EPOCH":16111,"BSTAR":0.00013801851,"MEAN_MOTION_DOT":6.8e-7,"MEAN_MOTION_DDOT":0},{"OBJECT_NAME":"ONEWEB-0507","OBJECT_ID":"2022-138N","EPOCH":"2026-02-18T05:45:04.185792","MEAN_MOTION":13.19725395,"ECCENTRICITY":0.0001605,"INCLINATION":87.9246,"RA_OF_ASC_NODE":328.6642,"ARG_OF_PERICENTER":82.1188,"MEAN_ANOMALY":278.0127,"EPHEMERIS_TYPE":0,"CLASSIFICATION_TYPE":"U","NORAD_CAT_ID":54125,"ELEMENT_SET_NO":999,"REV_AT_EPOCH":16116,"BSTAR":0.00019301379,"MEAN_MOTION_DOT":9.0e-7,"MEAN_MOTION_DDOT":0},{"OBJECT_NAME":"ONEWEB-0508","OBJECT_ID":"2022-138P","EPOCH":"2026-02-18T05:40:31.232640","MEAN_MOTION":13.19727427,"ECCENTRICITY":0.00015072,"INCLINATION":87.9251,"RA_OF_ASC_NODE":328.6633,"ARG_OF_PERICENTER":94.5575,"MEAN_ANOMALY":265.573,"EPHEMERIS_TYPE":0,"CLASSIFICATION_TYPE":"U","NORAD_CAT_ID":54126,"ELEMENT_SET_NO":999,"REV_AT_EPOCH":16114,"BSTAR":0.0001129757,"MEAN_MOTION_DOT":5.8e-7,"MEAN_MOTION_DDOT":0},{"OBJECT_NAME":"ONEWEB-0509","OBJECT_ID":"2022-138Q","EPOCH":"2026-02-18T05:04:07.062240","MEAN_MOTION":13.19726038,"ECCENTRICITY":0.00016322,"INCLINATION":87.9263,"RA_OF_ASC_NODE":328.6457,"ARG_OF_PERICENTER":80.385,"MEAN_ANOMALY":279.7467,"EPHEMERIS_TYPE":0,"CLASSIFICATION_TYPE":"U","NORAD_CAT_ID":54127,"ELEMENT_SET_NO":999,"REV_AT_EPOCH":16111,"BSTAR":7.488004e-5,"MEAN_MOTION_DOT":4.3e-7,"MEAN_MOTION_DDOT":0},{"OBJECT_NAME":"ONEWEB-0510","OBJECT_ID":"2022-138R","EPOCH":"2026-02-18T04:38:23.571168","MEAN_MOTION":13.20770644,"ECCENTRICITY":0.00020484,"INCLINATION":87.9205,"RA_OF_ASC_NODE":298.189,"ARG_OF_PERICENTER":73.7407,"MEAN_ANOMALY":286.3951,"EPHEMERIS_TYPE":0,"CLASSIFICATION_TYPE":"U","NORAD_CAT_ID":54128,"ELEMENT_SET_NO":999,"REV_AT_EPOCH":16357,"BSTAR":0.00019725992,"MEAN_MOTION_DOT":9.3e-7,"MEAN_MOTION_DDOT":0},{"OBJECT_NAME":"ONEWEB-0511","OBJECT_ID":"2022-138S","EPOCH":"2026-02-18T04:59:34.683648","MEAN_MOTION":13.19724418,"ECCENTRICITY":0.00016504,"INCLINATION":87.9262,"RA_OF_ASC_NODE":328.6508,"ARG_OF_PERICENTER":69.3617,"MEAN_ANOMALY":290.7693,"EPHEMERIS_TYPE":0,"CLASSIFICATION_TYPE":"U","NORAD_CAT_ID":54129,"ELEMENT_SET_NO":999,"REV_AT_EPOCH":16114,"BSTAR":0.00014594719,"MEAN_MOTION_DOT":7.1e-7,"MEAN_MOTION_DDOT":0},{"OBJECT_NAME":"ONEWEB-0512","OBJECT_ID":"2022-138T","EPOCH":"2026-02-18T04:48:12.799296","MEAN_MOTION":13.19726418,"ECCENTRICITY":0.00013588,"INCLINATION":87.9249,"RA_OF_ASC_NODE":328.6684,"ARG_OF_PERICENTER":78.8498,"MEAN_ANOMALY":281.2788,"EPHEMERIS_TYPE":0,"CLASSIFICATION_TYPE":"U","NORAD_CAT_ID":54130,"ELEMENT_SET_NO":999,"REV_AT_EPOCH":16111,"BSTAR":0.00036528425,"MEAN_MOTION_DOT":1.59e-6,"MEAN_MOTION_DDOT":0},{"OBJECT_NAME":"ONEWEB-0513","OBJECT_ID":"2022-138U","EPOCH":"2026-02-18T06:06:16.334208","MEAN_MOTION":13.20261548,"ECCENTRICITY":8.58e-5,"INCLINATION":87.9261,"RA_OF_ASC_NODE":328.6142,"ARG_OF_PERICENTER":67.8269,"MEAN_ANOMALY":292.2955,"EPHEMERIS_TYPE":0,"CLASSIFICATION_TYPE":"U","NORAD_CAT_ID":54131,"ELEMENT_SET_NO":999,"REV_AT_EPOCH":16102,"BSTAR":0.00015886452,"MEAN_MOTION_DOT":7.7e-7,"MEAN_MOTION_DDOT":0},{"OBJECT_NAME":"ONEWEB-0514","OBJECT_ID":"2022-138V","EPOCH":"2026-02-18T05:10:57.245376","MEAN_MOTION":13.19725156,"ECCENTRICITY":0.0001842,"INCLINATION":87.9252,"RA_OF_ASC_NODE":328.6538,"ARG_OF_PERICENTER":75.8119,"MEAN_ANOMALY":284.3219,"EPHEMERIS_TYPE":0,"CLASSIFICATION_TYPE":"U","NORAD_CAT_ID":54132,"ELEMENT_SET_NO":999,"REV_AT_EPOCH":16113,"BSTAR":0.00018965033,"MEAN_MOTION_DOT":8.9e-7,"MEAN_MOTION_DDOT":0},{"OBJECT_NAME":"ONEWEB-0515","OBJECT_ID":"2022-138W","EPOCH":"2026-02-18T04:20:12.623424","MEAN_MOTION":13.20771695,"ECCENTRICITY":0.0002507,"INCLINATION":87.9205,"RA_OF_ASC_NODE":298.1804,"ARG_OF_PERICENTER":87.3594,"MEAN_ANOMALY":272.7826,"EPHEMERIS_TYPE":0,"CLASSIFICATION_TYPE":"U","NORAD_CAT_ID":54133,"ELEMENT_SET_NO":999,"REV_AT_EPOCH":16359,"BSTAR":0.00025473253,"MEAN_MOTION_DOT":1.17e-6,"MEAN_MOTION_DDOT":0},{"OBJECT_NAME":"ONEWEB-0516","OBJECT_ID":"2022-138X","EPOCH":"2026-02-18T06:23:43.833984","MEAN_MOTION":13.19724264,"ECCENTRICITY":0.00017714,"INCLINATION":87.9246,"RA_OF_ASC_NODE":328.6569,"ARG_OF_PERICENTER":81.7851,"MEAN_ANOMALY":278.3482,"EPHEMERIS_TYPE":0,"CLASSIFICATION_TYPE":"U","NORAD_CAT_ID":54134,"ELEMENT_SET_NO":999,"REV_AT_EPOCH":16114,"BSTAR":0.0002499383,"MEAN_MOTION_DOT":1.13e-6,"MEAN_MOTION_DDOT":0},{"OBJECT_NAME":"ONEWEB-0517","OBJECT_ID":"2022-138Y","EPOCH":"2026-02-18T05:54:10.232928","MEAN_MOTION":13.19725286,"ECCENTRICITY":0.00017247,"INCLINATION":87.9254,"RA_OF_ASC_NODE":328.6483,"ARG_OF_PERICENTER":69.6233,"MEAN_ANOMALY":290.5085,"EPHEMERIS_TYPE":0,"CLASSIFICATION_TYPE":"U","NORAD_CAT_ID":54135,"ELEMENT_SET_NO":999,"REV_AT_EPOCH":16114,"BSTAR":0.00025453133,"MEAN_MOTION_DOT":1.15e-6,"MEAN_MOTION_DDOT":0},{"OBJECT_NAME":"ONEWEB-0518","OBJECT_ID":"2022-138Z","EPOCH":"2026-02-18T06:21:27.252864","MEAN_MOTION":13.19726098,"ECCENTRICITY":0.00016272,"INCLINATION":87.9244,"RA_OF_ASC_NODE":328.6589,"ARG_OF_PERICENTER":80.6192,"MEAN_ANOMALY":279.5124,"EPHEMERIS_TYPE":0,"CLASSIFICATION_TYPE":"U","NORAD_CAT_ID":54136,"ELEMENT_SET_NO":999,"REV_AT_EPOCH":16114,"BSTAR":0.00023045983,"MEAN_MOTION_DOT":1.05e-6,"MEAN_MOTION_DDOT":0},{"OBJECT_NAME":"ONEWEB-0519","OBJECT_ID":"2022-138AA","EPOCH":"2026-02-18T05:08:40.702272","MEAN_MOTION":13.19724215,"ECCENTRICITY":0.00016807,"INCLINATION":87.9259,"RA_OF_ASC_NODE":328.6463,"ARG_OF_PERICENTER":71.086,"MEAN_ANOMALY":289.0455,"EPHEMERIS_TYPE":0,"CLASSIFICATION_TYPE":"U","NORAD_CAT_ID":54137,"ELEMENT_SET_NO":999,"REV_AT_EPOCH":16114,"BSTAR":0.00016305685,"MEAN_MOTION_DOT":7.8e-7,"MEAN_MOTION_DDOT":0},{"OBJECT_NAME":"ONEWEB-0520","OBJECT_ID":"2022-138AB","EPOCH":"2026-02-18T05:58:42.689280","MEAN_MOTION":13.19724318,"ECCENTRICITY":0.0001549,"INCLINATION":87.9259,"RA_OF_ASC_NODE":328.6458,"ARG_OF_PERICENTER":82.5218,"MEAN_ANOMALY":277.6091,"EPHEMERIS_TYPE":0,"CLASSIFICATION_TYPE":"U","NORAD_CAT_ID":54138,"ELEMENT_SET_NO":999,"REV_AT_EPOCH":16113,"BSTAR":0.0001064279,"MEAN_MOTION_DOT":5.6e-7,"MEAN_MOTION_DDOT":0},{"OBJECT_NAME":"ONEWEB-0521","OBJECT_ID":"2022-138AC","EPOCH":"2026-02-18T04:57:17.730144","MEAN_MOTION":13.19723986,"ECCENTRICITY":0.00017844,"INCLINATION":87.9261,"RA_OF_ASC_NODE":328.6376,"ARG_OF_PERICENTER":70.5608,"MEAN_ANOMALY":289.5717,"EPHEMERIS_TYPE":0,"CLASSIFICATION_TYPE":"U","NORAD_CAT_ID":54139,"ELEMENT_SET_NO":999,"REV_AT_EPOCH":16107,"BSTAR":0.00019303728,"MEAN_MOTION_DOT":9.0e-7,"MEAN_MOTION_DDOT":0},{"OBJECT_NAME":"ONEWEB-0522","OBJECT_ID":"2022-138AD","EPOCH":"2026-02-18T06:16:54.778368","MEAN_MOTION":13.19725286,"ECCENTRICITY":0.00016103,"INCLINATION":87.926,"RA_OF_ASC_NODE":328.6281,"ARG_OF_PERICENTER":78.6514,"MEAN_ANOMALY":281.4799,"EPHEMERIS_TYPE":0,"CLASSIFICATION_TYPE":"U","NORAD_CAT_ID":54140,"ELEMENT_SET_NO":999,"REV_AT_EPOCH":16112,"BSTAR":0.00018493432,"MEAN_MOTION_DOT":8.7e-7,"MEAN_MOTION_DDOT":0}]
