ONEWEB-0506             
1 54124U 22138M   26049.21910455  .00000068  00000+0  13802-3 0  9990
2 54124  87.9261 328.6442 0001457  84.4768 275.6531 13.19725137161112
ONEWEB-0507             
1 54125U 22138N   26049.23963178  .00000090  00000+0  19301-3 0  9998
2 54125  87.9246 328.6642 0001605  82.1188 278.0127 13.19725395161163
ONEWEB-0508             
1 54126U 22138P   26049.23647260  .00000058  00000+0  11298-3 0  9991
2 54126  87.9251 328.6633 0001507  94.5575 265.5730 13.19727427161145
ONEWEB-0509             
1 54127U 22138Q   26049.21119285  .00000043  00000+0  74880-4 0  9992
2 54127  87.9263 328.6457 0001632  80.3850 279.7467 13.19726038161119
ONEWEB-0510             
1 54128U 22138R   26049.19332837  .00000093  00000+0  19726-3 0  9992
2 54128  87.9205 298.1890 0002048  73.7407 286.3951 13.20770644163572
ONEWEB-0511             
1 54129U 22138S   26049.20804032  .00000071  00000+0  14595-3 0  9991
2 54129  87.9262 328.6508 0001650  69.3617 290.7693 13.19724418161142
ONEWEB-0512             
1 54130U 22138T   26049.20014814  .00000159  00000+0  36528-3 0  9991
2 54130  87.9249 328.6684 0001358  78.8498 281.2788 13.19726418161110
ONEWEB-0513             
1 54131U 22138U   26049.25435572  .00000077  00000+0  15886-3 0  9998
2 54131  87.9261 328.6142 0000858  67.8269 292.2955 13.20261548161020
ONEWEB-0514             
1 54132U 22138V   26049.21594034  .00000089  00000+0  18965-3 0  9998
2 54132  87.9252 328.6538 0001842  75.8119 284.3219 13.19725156161132
ONEWEB-0515             
1 54133U 22138W   26049.18070166  .00000117  00000+0  25473-3 0  9994
2 54133  87.9205 298.1804 0002507  87.3594 272.7826 13.20771695163590
ONEWEB-0516             
1 54134U 22138X   26049.26647956  .00000113  00000+0  24994-3 0  9994
2 54134  87.9246 328.6569 0001771  81.7851 278.3482 13.19724264161146
ONEWEB-0517             
1 54135U 22138Y   26049.24595177  .00000115  00000+0  25453-3 0  9993
2 54135  87.9254 328.6483 0001724  69.6233 290.5085 13.19725286161148
ONEWEB-0518             
1 54136U 22138Z   26049.26489876  .00000105  00000+0  23046-3 0  9999
2 54136  87.9244 328.6589 0001627  80.6192 279.5124 13.19726098161147
ONEWEB-0519             
1 54137U 22138AA  26049.21435998  .00000078  00000+0  16306-3 0  9991
2 54137  87.9259 328.6463 0001680  71.0860 289.0455 13.19724215161142
ONEWEB-0520             
1 54138U 22138AB  26049.24910520  .00000056  00000+0  10643-3 0  9998
2 54138  87.9259 328.6458 0001549  82.5218 277.6091 13.19724318161137
ONEWEB-0521             
1 54139U 22138AC  26049.20645521  .00000090  00000+0  19304-3 0  9992
2 54139  87.9261 328.6376 0001784  70.5608 289.5717 13.19723986161071
ONEWEB-0522             
1 54140U 22138AD  26049.26174512  .00000087  00000+0  18493-3 0  9991
2 54140  87.9260 328.6281 0001610  78.6514 281.4799 13.19725286161122
